{
    "links": {
        "self": "http://www.neowsapp.com/rest/v1/neo/3843517?api_key=iIulBulltgU6a56xZRHN4H3l9WmuAYTsLGpBGhQ2"
    },
    "id": "3843517",
    "neo_reference_id": "3843517",
    "name": "(2019 PT1)",
    "designation": "2019 PT1",
    "nasa_jpl_url": "http://ssd.jpl.nasa.gov/sbdb.cgi?sstr=3843517",
    "absolute_magnitude_h": 23.9,
    "estimated_diameter": {
        "kilometers": {
            "estimated_diameter_min": 0.04411182,
            "estimated_diameter_max": 0.0986370281
        },
        "meters": {
            "estimated_diameter_min": 44.1118199997,
            "estimated_diameter_max": 98.6370281305
        },
        "miles": {
            "estimated_diameter_min": 0.0274098057,
            "estimated_diameter_max": 0.0612901888
        },
        "feet": {
            "estimated_diameter_min": 144.7238235278,
            "estimated_diameter_max": 323.6123073718
        }
    },
    "is_potentially_hazardous_asteroid": false,
    "close_approach_data": [
        {
            "close_approach_date": "2006-09-17",
            "close_approach_date_full": "2006-Sep-17 21:15",
            "epoch_date_close_approach": 1158527700000,
            "relative_velocity": {
                "kilometers_per_second": "15.377440678",
                "kilometers_per_hour": "55358.7864407003",
                "miles_per_hour": "34397.7970525562"
            },
            "miss_distance": {
                "astronomical": "0.4427279808",
                "lunar": "172.2211845312",
                "kilometers": "66231162.917080896",
                "miles": "41154136.2940165248"
            },
            "orbiting_body": "Earth"
        },
        {
            "close_approach_date": "2019-08-08",
            "close_approach_date_full": "2019-Aug-08 03:12",
            "epoch_date_close_approach": 1565233920000,
            "relative_velocity": {
                "kilometers_per_second": "8.5782453144",
                "kilometers_per_hour": "30881.6831317944",
                "miles_per_hour": "19188.676943753"
            },
            "miss_distance": {
                "astronomical": "0.1464683058",
                "lunar": "56.9761709562",
                "kilometers": "21911346.570188646",
                "miles": "13615079.4190934748"
            },
            "orbiting_body": "Earth"
        }
    ],
    "orbital_data": {
        "orbit_id": "4",
        "orbit_determination_date": "2019-12-04 07:18:40",
        "first_observation_date": "2019-08-08",
        "last_observation_date": "2019-10-22",
        "data_arc_in_days": 75,
        "observations_used": 19,
        "orbit_uncertainty": "6",
        "minimum_orbit_intersection": ".104629",
        "jupiter_tisserand_invariant": "3.496",
        "epoch_osculation": "2459000.5",
        "eccentricity": ".4894246654504091",
        "semi_major_axis": "2.183098070990101",
        "inclination": "10.02281325550607",
        "ascending_node_longitude": "140.1868987959465",
        "orbital_period": "1178.17091071345",
        "perihelion_distance": "1.114636027950338",
        "perihelion_argument": "188.5242197676682",
        "aphelion_distance": "3.251560114029865",
        "perihelion_time": "2458711.591901831949",
        "mean_anomaly": "88.27829171025478",
        "mean_motion": ".3055583843790537",
        "equinox": "J2000",
        "orbit_class": {
            "orbit_class_type": "AMO",
            "orbit_class_description": "Near-Earth asteroid orbits similar to that of 1221 Amor",
            "orbit_class_range": "1.017 AU < q (perihelion) < 1.3 AU"
        }
    },
    "is_sentry_object": false
}